[{"OBJECT_NAME":"ONEWEB-0224","OBJECT_ID":"2021-045AD","EPOCH":"2025-10-27T01:12:53.130816","MEAN_MOTION":13.15549745,"ECCENTRICITY":0.00028281,"INCLINATION":87.8959,"RA_OF_ASC_NODE":305.7596,"ARG_OF_PERICENTER":92.7424,"MEAN_ANOMALY":267.403,"EPHEMERIS_TYPE":0,"CLASSIFICATION_TYPE":"U","NORAD_CAT_ID":48794,"ELEMENT_SET_NO":999,"REV_AT_EPOCH":21362,"BSTAR":-0.00041930568,"MEAN_MOTION_DOT":-1.45e-6,"MEAN_MOTION_DDOT":0},{"OBJECT_NAME":"ONEWEB-0233","OBJECT_ID":"2021-045AE","EPOCH":"2025-10-27T06:48:06.766560","MEAN_MOTION":13.15548699,"ECCENTRICITY":0.00021182,"INCLINATION":87.8961,"RA_OF_ASC_NODE":305.7246,"ARG_OF_PERICENTER":98.7893,"MEAN_ANOMALY":261.3477,"EPHEMERIS_TYPE":0,"CLASSIFICATION_TYPE":"U","NORAD_CAT_ID":48795,"ELEMENT_SET_NO":999,"REV_AT_EPOCH":21367,"BSTAR":-0.00015951196,"MEAN_MOTION_DOT":-4.7e-7,"MEAN_MOTION_DDOT":0},{"OBJECT_NAME":"ONEWEB-0190","OBJECT_ID":"2021-045AF","EPOCH":"2025-10-27T06:30:03.451392","MEAN_MOTION":13.15549371,"ECCENTRICITY":0.00022066,"INCLINATION":87.8961,"RA_OF_ASC_NODE":305.6891,"ARG_OF_PERICENTER":112.4477,"MEAN_ANOMALY":247.6887,"EPHEMERIS_TYPE":0,"CLASSIFICATION_TYPE":"U","NORAD_CAT_ID":48796,"ELEMENT_SET_NO":999,"REV_AT_EPOCH":21374,"BSTAR":-0.00037222004,"MEAN_MOTION_DOT":-1.27e-6,"MEAN_MOTION_DDOT":0},{"OBJECT_NAME":"ONEWEB-0236","OBJECT_ID":"2021-045AG","EPOCH":"2025-10-27T06:55:09.572736","MEAN_MOTION":13.15548206,"ECCENTRICITY":0.00019131,"INCLINATION":87.8959,"RA_OF_ASC_NODE":305.6969,"ARG_OF_PERICENTER":87.8775,"MEAN_ANOMALY":272.2574,"EPHEMERIS_TYPE":0,"CLASSIFICATION_TYPE":"U","NORAD_CAT_ID":48797,"ELEMENT_SET_NO":999,"REV_AT_EPOCH":21363,"BSTAR":-0.00021308316,"MEAN_MOTION_DOT":-6.7e-7,"MEAN_MOTION_DDOT":0},{"OBJECT_NAME":"ONEWEB-0248","OBJECT_ID":"2021-045AH","EPOCH":"2025-10-26T23:55:18.416352","MEAN_MOTION":13.155471,"ECCENTRICITY":0.00024,"INCLINATION":87.8968,"RA_OF_ASC_NODE":305.714,"ARG_OF_PERICENTER":100.4373,"MEAN_ANOMALY":259.7028,"EPHEMERIS_TYPE":0,"CLASSIFICATION_TYPE":"U","NORAD_CAT_ID":48798,"ELEMENT_SET_NO":999,"REV_AT_EPOCH":21375,"BSTAR":0.00042087731,"MEAN_MOTION_DOT":1.71e-6,"MEAN_MOTION_DDOT":0},{"OBJECT_NAME":"ONEWEB-0225","OBJECT_ID":"2021-045AJ","EPOCH":"2025-10-27T05:55:50.476800","MEAN_MOTION":13.15548714,"ECCENTRICITY":0.0002141,"INCLINATION":87.8963,"RA_OF_ASC_NODE":305.692,"ARG_OF_PERICENTER":108.3554,"MEAN_ANOMALY":251.7809,"EPHEMERIS_TYPE":0,"CLASSIFICATION_TYPE":"U","NORAD_CAT_ID":48799,"ELEMENT_SET_NO":999,"REV_AT_EPOCH":21379,"BSTAR":0.00041157308,"MEAN_MOTION_DOT":1.68e-6,"MEAN_MOTION_DDOT":0},{"OBJECT_NAME":"ONEWEB-0215","OBJECT_ID":"2021-045AK","EPOCH":"2025-10-26T23:43:53.160672","MEAN_MOTION":13.15550527,"ECCENTRICITY":0.00023559,"INCLINATION":87.8969,"RA_OF_ASC_NODE":305.699,"ARG_OF_PERICENTER":107.1172,"MEAN_ANOMALY":253.0217,"EPHEMERIS_TYPE":0,"CLASSIFICATION_TYPE":"U","NORAD_CAT_ID":48800,"ELEMENT_SET_NO":999,"REV_AT_EPOCH":21363,"BSTAR":0.00011771139,"MEAN_MOTION_DOT":5.7e-7,"MEAN_MOTION_DDOT":0},{"OBJECT_NAME":"ONEWEB-0216","OBJECT_ID":"2021-045AL","EPOCH":"2025-10-27T07:15:40.259520","MEAN_MOTION":13.15550561,"ECCENTRICITY":0.00017145,"INCLINATION":87.8959,"RA_OF_ASC_NODE":305.6725,"ARG_OF_PERICENTER":97.1745,"MEAN_ANOMALY":262.958,"EPHEMERIS_TYPE":0,"CLASSIFICATION_TYPE":"U","NORAD_CAT_ID":48801,"ELEMENT_SET_NO":999,"REV_AT_EPOCH":21368,"BSTAR":0.00039263496,"MEAN_MOTION_DOT":1.61e-6,"MEAN_MOTION_DDOT":0},{"OBJECT_NAME":"ONEWEB-0239","OBJECT_ID":"2021-045AM","EPOCH":"2025-10-27T07:22:32.866176","MEAN_MOTION":13.15547932,"ECCENTRICITY":0.00025962,"INCLINATION":87.8961,"RA_OF_ASC_NODE":305.6863,"ARG_OF_PERICENTER":101.2919,"MEAN_ANOMALY":258.8503,"EPHEMERIS_TYPE":0,"CLASSIFICATION_TYPE":"U","NORAD_CAT_ID":48802,"ELEMENT_SET_NO":999,"REV_AT_EPOCH":21372,"BSTAR":0.00060043702,"MEAN_MOTION_DOT":2.39e-6,"MEAN_MOTION_DDOT":0},{"OBJECT_NAME":"ONEWEB-0249","OBJECT_ID":"2021-060A","EPOCH":"2025-10-27T04:44:16.459008","MEAN_MOTION":13.16595498,"ECCENTRICITY":0.00019831,"INCLINATION":87.8986,"RA_OF_ASC_NODE":275.1894,"ARG_OF_PERICENTER":88.7011,"MEAN_ANOMALY":271.4347,"EPHEMERIS_TYPE":0,"CLASSIFICATION_TYPE":"U","NORAD_CAT_ID":48967,"ELEMENT_SET_NO":999,"REV_AT_EPOCH":20895,"BSTAR":0.00013487541,"MEAN_MOTION_DOT":6.4e-7,"MEAN_MOTION_DDOT":0},{"OBJECT_NAME":"ONEWEB-0250","OBJECT_ID":"2021-060B","EPOCH":"2025-10-27T04:28:10.713504","MEAN_MOTION":13.25816052,"ECCENTRICITY":0.00029634,"INCLINATION":87.8984,"RA_OF_ASC_NODE":273.7101,"ARG_OF_PERICENTER":80.9889,"MEAN_ANOMALY":279.1582,"EPHEMERIS_TYPE":0,"CLASSIFICATION_TYPE":"U","NORAD_CAT_ID":48968,"ELEMENT_SET_NO":999,"REV_AT_EPOCH":20934,"BSTAR":0.00011002098,"MEAN_MOTION_DOT":6.1e-7,"MEAN_MOTION_DDOT":0},{"OBJECT_NAME":"ONEWEB-0252","OBJECT_ID":"2021-060D","EPOCH":"2025-10-26T22:12:06.937056","MEAN_MOTION":13.16592469,"ECCENTRICITY":0.0001664,"INCLINATION":87.8987,"RA_OF_ASC_NODE":275.2372,"ARG_OF_PERICENTER":90.1946,"MEAN_ANOMALY":269.9375,"EPHEMERIS_TYPE":0,"CLASSIFICATION_TYPE":"U","NORAD_CAT_ID":48970,"ELEMENT_SET_NO":999,"REV_AT_EPOCH":20896,"BSTAR":0.00027893,"MEAN_MOTION_DOT":1.19e-6,"MEAN_MOTION_DDOT":0},{"OBJECT_NAME":"ONEWEB-0253","OBJECT_ID":"2021-060E","EPOCH":"2025-10-27T05:13:53.681088","MEAN_MOTION":13.16593826,"ECCENTRICITY":0.00019503,"INCLINATION":87.8986,"RA_OF_ASC_NODE":275.1826,"ARG_OF_PERICENTER":91.855,"MEAN_ANOMALY":268.2805,"EPHEMERIS_TYPE":0,"CLASSIFICATION_TYPE":"U","NORAD_CAT_ID":48971,"ELEMENT_SET_NO":999,"REV_AT_EPOCH":20893,"BSTAR":-0.0004817856,"MEAN_MOTION_DOT":-1.71e-6,"MEAN_MOTION_DDOT":0},{"OBJECT_NAME":"ONEWEB-0254","OBJECT_ID":"2021-060F","EPOCH":"2025-10-26T23:59:17.100672","MEAN_MOTION":13.16592126,"ECCENTRICITY":0.00021512,"INCLINATION":87.8993,"RA_OF_ASC_NODE":275.2153,"ARG_OF_PERICENTER":93.3453,"MEAN_ANOMALY":266.7924,"EPHEMERIS_TYPE":0,"CLASSIFICATION_TYPE":"U","NORAD_CAT_ID":48972,"ELEMENT_SET_NO":999,"REV_AT_EPOCH":20890,"BSTAR":0.00011789238,"MEAN_MOTION_DOT":5.8e-7,"MEAN_MOTION_DDOT":0},{"OBJECT_NAME":"ONEWEB-0255","OBJECT_ID":"2021-060G","EPOCH":"2025-10-27T06:22:18.761088","MEAN_MOTION":13.16595866,"ECCENTRICITY":0.00020695,"INCLINATION":87.8983,"RA_OF_ASC_NODE":275.1828,"ARG_OF_PERICENTER":91.1978,"MEAN_ANOMALY":268.939,"EPHEMERIS_TYPE":0,"CLASSIFICATION_TYPE":"U","NORAD_CAT_ID":48973,"ELEMENT_SET_NO":999,"REV_AT_EPOCH":20901,"BSTAR":5.2851246e-5,"MEAN_MOTION_DOT":3.3e-7,"MEAN_MOTION_DDOT":0},{"OBJECT_NAME":"ONEWEB-0256","OBJECT_ID":"2021-060H","EPOCH":"2025-10-27T05:10:29.631936","MEAN_MOTION":13.16594406,"ECCENTRICITY":0.00017596,"INCLINATION":87.8976,"RA_OF_ASC_NODE":275.2034,"ARG_OF_PERICENTER":84.0758,"MEAN_ANOMALY":276.0574,"EPHEMERIS_TYPE":0,"CLASSIFICATION_TYPE":"U","NORAD_CAT_ID":48974,"ELEMENT_SET_NO":999,"REV_AT_EPOCH":20897,"BSTAR":-6.8040072e-5,"MEAN_MOTION_DOT":-1.3e-7,"MEAN_MOTION_DDOT":0},{"OBJECT_NAME":"ONEWEB-0257","OBJECT_ID":"2021-060J","EPOCH":"2025-10-27T04:07:48.238176","MEAN_MOTION":13.16594946,"ECCENTRICITY":0.0001917,"INCLINATION":87.8988,"RA_OF_ASC_NODE":275.1857,"ARG_OF_PERICENTER":91.3684,"MEAN_ANOMALY":268.7666,"EPHEMERIS_TYPE":0,"CLASSIFICATION_TYPE":"U","NORAD_CAT_ID":48975,"ELEMENT_SET_NO":999,"REV_AT_EPOCH":20892,"BSTAR":0.00013136688,"MEAN_MOTION_DOT":6.3e-7,"MEAN_MOTION_DDOT":0},{"OBJECT_NAME":"ONEWEB-0258","OBJECT_ID":"2021-060K","EPOCH":"2025-10-27T04:10:05.172672","MEAN_MOTION":13.16595313,"ECCENTRICITY":0.00019727,"INCLINATION":87.8978,"RA_OF_ASC_NODE":275.2045,"ARG_OF_PERICENTER":83.9623,"MEAN_ANOMALY":276.1732,"EPHEMERIS_TYPE":0,"CLASSIFICATION_TYPE":"U","NORAD_CAT_ID":48976,"ELEMENT_SET_NO":999,"REV_AT_EPOCH":20893,"BSTAR":4.5614721e-5,"MEAN_MOTION_DOT":3.0e-7,"MEAN_MOTION_DDOT":0},{"OBJECT_NAME":"ONEWEB-0259","OBJECT_ID":"2021-060L","EPOCH":"2025-10-27T04:00:58.280544","MEAN_MOTION":13.16595369,"ECCENTRICITY":0.00020324,"INCLINATION":87.899,"RA_OF_ASC_NODE":275.1954,"ARG_OF_PERICENTER":89.589,"MEAN_ANOMALY":270.5473,"EPHEMERIS_TYPE":0,"CLASSIFICATION_TYPE":"U","NORAD_CAT_ID":48977,"ELEMENT_SET_NO":999,"REV_AT_EPOCH":20896,"BSTAR":0.00016865416,"MEAN_MOTION_DOT":7.7e-7,"MEAN_MOTION_DDOT":0},{"OBJECT_NAME":"ONEWEB-0260","OBJECT_ID":"2021-060M","EPOCH":"2025-10-26T22:20:08.128896","MEAN_MOTION":13.16595212,"ECCENTRICITY":0.0001488,"INCLINATION":87.8976,"RA_OF_ASC_NODE":275.262,"ARG_OF_PERICENTER":86.9502,"MEAN_ANOMALY":273.18,"EPHEMERIS_TYPE":0,"CLASSIFICATION_TYPE":"U","NORAD_CAT_ID":48978,"ELEMENT_SET_NO":999,"REV_AT_EPOCH":20891,"BSTAR":0.00021042,"MEAN_MOTION_DOT":9.3e-7,"MEAN_MOTION_DDOT":0},{"OBJECT_NAME":"ONEWEB-0261","OBJECT_ID":"2021-060N","EPOCH":"2025-10-27T04:54:32.372640","MEAN_MOTION":13.16592287,"ECCENTRICITY":0.00019659,"INCLINATION":87.8975,"RA_OF_ASC_NODE":275.2088,"ARG_OF_PERICENTER":98.9857,"MEAN_ANOMALY":261.1496,"EPHEMERIS_TYPE":0,"CLASSIFICATION_TYPE":"U","NORAD_CAT_ID":48979,"ELEMENT_SET_NO":999,"REV_AT_EPOCH":20900,"BSTAR":8.2371452e-5,"MEAN_MOTION_DOT":4.4e-7,"MEAN_MOTION_DDOT":0},{"OBJECT_NAME":"ONEWEB-0262","OBJECT_ID":"2021-060P","EPOCH":"2025-10-27T04:26:02.431968","MEAN_MOTION":13.16595572,"ECCENTRICITY":0.00022395,"INCLINATION":87.8988,"RA_OF_ASC_NODE":275.1815,"ARG_OF_PERICENTER":87.8111,"MEAN_ANOMALY":272.3276,"EPHEMERIS_TYPE":0,"CLASSIFICATION_TYPE":"U","NORAD_CAT_ID":48980,"ELEMENT_SET_NO":999,"REV_AT_EPOCH":20896,"BSTAR":-5.7477404e-5,"MEAN_MOTION_DOT":-9.0e-8,"MEAN_MOTION_DDOT":0},{"OBJECT_NAME":"ONEWEB-0263","OBJECT_ID":"2021-060Q","EPOCH":"2025-10-27T05:11:38.935104","MEAN_MOTION":13.16594506,"ECCENTRICITY":0.00020655,"INCLINATION":87.8978,"RA_OF_ASC_NODE":275.1932,"ARG_OF_PERICENTER":96.6301,"MEAN_ANOMALY":263.5065,"EPHEMERIS_TYPE":0,"CLASSIFICATION_TYPE":"U","NORAD_CAT_ID":48981,"ELEMENT_SET_NO":999,"REV_AT_EPOCH":20893,"BSTAR":5.0590159e-5,"MEAN_MOTION_DOT":3.2e-7,"MEAN_MOTION_DDOT":0}]
